[{"OBJECT_NAME":"ONEWEB-0234","OBJECT_ID":"2021-045S","EPOCH":"2025-09-13T22:06:33.091776","MEAN_MOTION":13.15550992,"ECCENTRICITY":0.00024193,"INCLINATION":87.9032,"RA_OF_ASC_NODE":314.304,"ARG_OF_PERICENTER":116.3997,"MEAN_ANOMALY":243.7382,"EPHEMERIS_TYPE":0,"CLASSIFICATION_TYPE":"U","NORAD_CAT_ID":48783,"ELEMENT_SET_NO":999,"REV_AT_EPOCH":20815,"BSTAR":0.00026234296,"MEAN_MOTION_DOT":1.12e-6,"MEAN_MOTION_DDOT":0},{"OBJECT_NAME":"ONEWEB-0238","OBJECT_ID":"2021-045T","EPOCH":"2025-09-13T22:06:57.708864","MEAN_MOTION":13.15548822,"ECCENTRICITY":0.00021303,"INCLINATION":87.903,"RA_OF_ASC_NODE":314.2998,"ARG_OF_PERICENTER":105.6578,"MEAN_ANOMALY":254.4788,"EPHEMERIS_TYPE":0,"CLASSIFICATION_TYPE":"U","NORAD_CAT_ID":48784,"ELEMENT_SET_NO":999,"REV_AT_EPOCH":20805,"BSTAR":0.0002151565,"MEAN_MOTION_DOT":9.4e-7,"MEAN_MOTION_DDOT":0},{"OBJECT_NAME":"ONEWEB-0240","OBJECT_ID":"2021-045U","EPOCH":"2025-09-14T02:16:36.528672","MEAN_MOTION":13.15548341,"ECCENTRICITY":0.00015993,"INCLINATION":87.9036,"RA_OF_ASC_NODE":314.2502,"ARG_OF_PERICENTER":105.4702,"MEAN_ANOMALY":254.6605,"EPHEMERIS_TYPE":0,"CLASSIFICATION_TYPE":"U","NORAD_CAT_ID":48785,"ELEMENT_SET_NO":999,"REV_AT_EPOCH":20810,"BSTAR":0.00010505104,"MEAN_MOTION_DOT":5.2e-7,"MEAN_MOTION_DDOT":0},{"OBJECT_NAME":"ONEWEB-0246","OBJECT_ID":"2021-045V","EPOCH":"2025-09-14T03:58:08.425920","MEAN_MOTION":13.15549109,"ECCENTRICITY":0.00017608,"INCLINATION":87.9039,"RA_OF_ASC_NODE":314.2486,"ARG_OF_PERICENTER":92.9409,"MEAN_ANOMALY":267.1922,"EPHEMERIS_TYPE":0,"CLASSIFICATION_TYPE":"U","NORAD_CAT_ID":48786,"ELEMENT_SET_NO":999,"REV_AT_EPOCH":20798,"BSTAR":0.0001352131,"MEAN_MOTION_DOT":6.4e-7,"MEAN_MOTION_DDOT":0},{"OBJECT_NAME":"ONEWEB-0210","OBJECT_ID":"2021-045W","EPOCH":"2025-09-14T03:21:38.236032","MEAN_MOTION":13.15548789,"ECCENTRICITY":0.00013842,"INCLINATION":87.9038,"RA_OF_ASC_NODE":314.2531,"ARG_OF_PERICENTER":79.0067,"MEAN_ANOMALY":281.1219,"EPHEMERIS_TYPE":0,"CLASSIFICATION_TYPE":"U","NORAD_CAT_ID":48787,"ELEMENT_SET_NO":999,"REV_AT_EPOCH":20802,"BSTAR":0.00030482713,"MEAN_MOTION_DOT":1.28e-6,"MEAN_MOTION_DDOT":0},{"OBJECT_NAME":"ONEWEB-0214","OBJECT_ID":"2021-045X","EPOCH":"2025-09-13T22:05:36.431520","MEAN_MOTION":13.15548198,"ECCENTRICITY":0.0001671,"INCLINATION":87.9036,"RA_OF_ASC_NODE":314.2845,"ARG_OF_PERICENTER":82.8437,"MEAN_ANOMALY":277.2883,"EPHEMERIS_TYPE":0,"CLASSIFICATION_TYPE":"U","NORAD_CAT_ID":48788,"ELEMENT_SET_NO":999,"REV_AT_EPOCH":20796,"BSTAR":0.00037404519,"MEAN_MOTION_DOT":1.54e-6,"MEAN_MOTION_DDOT":0},{"OBJECT_NAME":"ONEWEB-0221","OBJECT_ID":"2021-045Y","EPOCH":"2025-09-13T22:15:52.339968","MEAN_MOTION":13.15550432,"ECCENTRICITY":0.00016396,"INCLINATION":87.9027,"RA_OF_ASC_NODE":314.3087,"ARG_OF_PERICENTER":97.2628,"MEAN_ANOMALY":262.8689,"EPHEMERIS_TYPE":0,"CLASSIFICATION_TYPE":"U","NORAD_CAT_ID":48789,"ELEMENT_SET_NO":999,"REV_AT_EPOCH":20805,"BSTAR":0.00043180886,"MEAN_MOTION_DOT":1.75e-6,"MEAN_MOTION_DDOT":0},{"OBJECT_NAME":"ONEWEB-0213","OBJECT_ID":"2021-045Z","EPOCH":"2025-09-14T03:28:28.818336","MEAN_MOTION":13.15548654,"ECCENTRICITY":0.00015847,"INCLINATION":87.9026,"RA_OF_ASC_NODE":314.274,"ARG_OF_PERICENTER":93.9755,"MEAN_ANOMALY":266.1556,"EPHEMERIS_TYPE":0,"CLASSIFICATION_TYPE":"U","NORAD_CAT_ID":48790,"ELEMENT_SET_NO":999,"REV_AT_EPOCH":20814,"BSTAR":0.00021361071,"MEAN_MOTION_DOT":9.3e-7,"MEAN_MOTION_DDOT":0},{"OBJECT_NAME":"ONEWEB-0212","OBJECT_ID":"2021-045AA","EPOCH":"2025-09-14T02:55:23.901888","MEAN_MOTION":13.15548589,"ECCENTRICITY":0.00018857,"INCLINATION":87.9031,"RA_OF_ASC_NODE":314.2615,"ARG_OF_PERICENTER":99.1231,"MEAN_ANOMALY":261.0113,"EPHEMERIS_TYPE":0,"CLASSIFICATION_TYPE":"U","NORAD_CAT_ID":48791,"ELEMENT_SET_NO":999,"REV_AT_EPOCH":20813,"BSTAR":-0.00022348748,"MEAN_MOTION_DOT":-7.1e-7,"MEAN_MOTION_DDOT":0},{"OBJECT_NAME":"ONEWEB-0227","OBJECT_ID":"2021-045AB","EPOCH":"2025-09-14T02:54:14.933088","MEAN_MOTION":13.15549197,"ECCENTRICITY":0.0001742,"INCLINATION":87.9026,"RA_OF_ASC_NODE":314.2801,"ARG_OF_PERICENTER":98.3514,"MEAN_ANOMALY":261.7814,"EPHEMERIS_TYPE":0,"CLASSIFICATION_TYPE":"U","NORAD_CAT_ID":48792,"ELEMENT_SET_NO":999,"REV_AT_EPOCH":20808,"BSTAR":-0.00020941475,"MEAN_MOTION_DOT":-6.6e-7,"MEAN_MOTION_DDOT":0},{"OBJECT_NAME":"ONEWEB-0226","OBJECT_ID":"2021-045AC","EPOCH":"2025-09-14T02:45:06.986016","MEAN_MOTION":13.155489,"ECCENTRICITY":0.00015886,"INCLINATION":87.9029,"RA_OF_ASC_NODE":314.2886,"ARG_OF_PERICENTER":89.7365,"MEAN_ANOMALY":270.3947,"EPHEMERIS_TYPE":0,"CLASSIFICATION_TYPE":"U","NORAD_CAT_ID":48793,"ELEMENT_SET_NO":999,"REV_AT_EPOCH":20805,"BSTAR":-0.00016127649,"MEAN_MOTION_DOT":-4.8e-7,"MEAN_MOTION_DDOT":0},{"OBJECT_NAME":"ONEWEB-0224","OBJECT_ID":"2021-045AD","EPOCH":"2025-09-13T22:13:36.155424","MEAN_MOTION":13.15549301,"ECCENTRICITY":0.00017501,"INCLINATION":87.903,"RA_OF_ASC_NODE":314.3612,"ARG_OF_PERICENTER":129.0291,"MEAN_ANOMALY":231.0996,"EPHEMERIS_TYPE":0,"CLASSIFICATION_TYPE":"U","NORAD_CAT_ID":48794,"ELEMENT_SET_NO":999,"REV_AT_EPOCH":20795,"BSTAR":0.00045739271,"MEAN_MOTION_DOT":1.85e-6,"MEAN_MOTION_DDOT":0},{"OBJECT_NAME":"ONEWEB-0233","OBJECT_ID":"2021-045AE","EPOCH":"2025-09-14T03:48:48.756096","MEAN_MOTION":13.15548991,"ECCENTRICITY":0.00015689,"INCLINATION":87.9029,"RA_OF_ASC_NODE":314.326,"ARG_OF_PERICENTER":101.764,"MEAN_ANOMALY":258.3666,"EPHEMERIS_TYPE":0,"CLASSIFICATION_TYPE":"U","NORAD_CAT_ID":48795,"ELEMENT_SET_NO":999,"REV_AT_EPOCH":20800,"BSTAR":0.00040612907,"MEAN_MOTION_DOT":1.66e-6,"MEAN_MOTION_DDOT":0},{"OBJECT_NAME":"ONEWEB-0190","OBJECT_ID":"2021-045AF","EPOCH":"2025-09-14T03:30:44.483616","MEAN_MOTION":13.15550457,"ECCENTRICITY":0.00010642,"INCLINATION":87.9028,"RA_OF_ASC_NODE":314.2913,"ARG_OF_PERICENTER":93.513,"MEAN_ANOMALY":266.6122,"EPHEMERIS_TYPE":0,"CLASSIFICATION_TYPE":"U","NORAD_CAT_ID":48796,"ELEMENT_SET_NO":999,"REV_AT_EPOCH":20807,"BSTAR":0.00029459527,"MEAN_MOTION_DOT":1.24e-6,"MEAN_MOTION_DDOT":0},{"OBJECT_NAME":"ONEWEB-0236","OBJECT_ID":"2021-045AG","EPOCH":"2025-09-14T03:55:51.874176","MEAN_MOTION":13.15549407,"ECCENTRICITY":0.00019891,"INCLINATION":87.9029,"RA_OF_ASC_NODE":314.2986,"ARG_OF_PERICENTER":99.1115,"MEAN_ANOMALY":261.024,"EPHEMERIS_TYPE":0,"CLASSIFICATION_TYPE":"U","NORAD_CAT_ID":48797,"ELEMENT_SET_NO":999,"REV_AT_EPOCH":20796,"BSTAR":0.00016460485,"MEAN_MOTION_DOT":7.5e-7,"MEAN_MOTION_DDOT":0},{"OBJECT_NAME":"ONEWEB-0248","OBJECT_ID":"2021-045AH","EPOCH":"2025-09-13T20:56:00.822336","MEAN_MOTION":13.15549905,"ECCENTRICITY":0.00013932,"INCLINATION":87.9039,"RA_OF_ASC_NODE":314.3116,"ARG_OF_PERICENTER":113.7348,"MEAN_ANOMALY":246.3929,"EPHEMERIS_TYPE":0,"CLASSIFICATION_TYPE":"U","NORAD_CAT_ID":48798,"ELEMENT_SET_NO":999,"REV_AT_EPOCH":20808,"BSTAR":-0.00031552731,"MEAN_MOTION_DOT":-1.06e-6,"MEAN_MOTION_DDOT":0}]
