ONEWEB-0234             
1 48783U 21045S   25256.92121634  .00000112  00000+0  26234-3 0  9993
2 48783  87.9032 314.3040 0002419 116.3997 243.7382 13.15550992208153
ONEWEB-0238             
1 48784U 21045T   25256.92150126  .00000094  00000+0  21516-3 0  9999
2 48784  87.9030 314.2998 0002130 105.6578 254.4788 13.15548822208056
ONEWEB-0240             
1 48785U 21045U   25257.09486723  .00000052  00000+0  10505-3 0  9994
2 48785  87.9036 314.2502 0001599 105.4702 254.6605 13.15548341208101
ONEWEB-0246             
1 48786U 21045V   25257.16537530  .00000064  00000+0  13521-3 0  9990
2 48786  87.9039 314.2486 0001760  92.9409 267.1922 13.15549109207989
ONEWEB-0210             
1 48787U 21045W   25257.14002588  .00000128  00000+0  30483-3 0  9996
2 48787  87.9038 314.2531 0001384  79.0067 281.1219 13.15548789208022
ONEWEB-0214             
1 48788U 21045X   25256.92056055  .00000154  00000+0  37405-3 0  9990
2 48788  87.9036 314.2845 0001671  82.8437 277.2883 13.15548198207960
ONEWEB-0221             
1 48789U 21045Y   25256.92768912  .00000175  00000+0  43181-3 0  9994
2 48789  87.9027 314.3087 0001639  97.2628 262.8689 13.15550432208055
ONEWEB-0213             
1 48790U 21045Z   25257.14477799  .00000093  00000+0  21361-3 0  9996
2 48790  87.9026 314.2740 0001584  93.9755 266.1556 13.15548654208147
ONEWEB-0212             
1 48791U 21045AA  25257.12180442 -.00000071  00000+0 -22349-3 0  9996
2 48791  87.9031 314.2615 0001885  99.1231 261.0113 13.15548589208135
ONEWEB-0227             
1 48792U 21045AB  25257.12100617 -.00000066  00000+0 -20941-3 0  9993
2 48792  87.9026 314.2801 0001742  98.3514 261.7814 13.15549197208089
ONEWEB-0226             
1 48793U 21045AC  25257.11466419 -.00000048  00000+0 -16128-3 0  9990
2 48793  87.9029 314.2886 0001588  89.7365 270.3947 13.15548900208053
ONEWEB-0224             
1 48794U 21045AD  25256.92611291  .00000185  00000+0  45739-3 0  9999
2 48794  87.9030 314.3612 0001750 129.0291 231.0996 13.15549301207953
ONEWEB-0233             
1 48795U 21045AE  25257.15889764  .00000166  00000+0  40613-3 0  9993
2 48795  87.9029 314.3260 0001568 101.7640 258.3666 13.15548991208000
ONEWEB-0190             
1 48796U 21045AF  25257.14634819  .00000124  00000+0  29460-3 0  9993
2 48796  87.9028 314.2913 0001064  93.5130 266.6122 13.15550457208073
ONEWEB-0236             
1 48797U 21045AG  25257.16379484  .00000075  00000+0  16460-3 0  9991
2 48797  87.9029 314.2986 0001989  99.1115 261.0240 13.15549407207966
ONEWEB-0248             
1 48798U 21045AH  25256.87223174 -.00000106  00000+0 -31553-3 0  9990
2 48798  87.9039 314.3116 0001393 113.7348 246.3929 13.15549905208081
